NORAD_CAT_ID,OBJECT_NAME,OBJECT_TYPE,EPOCH,MEAN_MOTION,ECCENTRICITY,INCLINATION,RA_OF_ASC_NODE,ARG_OF_PERICENTER,MEAN_ANOMALY,BSTAR,MEAN_MOTION_DOT,MEAN_MOTION_DDOT,TLE_LINE0,TLE_LINE1,TLE_LINE2,SEMIMAJOR_AXIS,PERIOD,APOGEE,PERIGEE,DECAYED
55950.0,STARLINK-5911,PAYLOAD,2023-05-29 14:43:23,15.69919121,0.000334,69.9972,336.2502,274.4745,85.6069,1.7463e-06,-3e-08,0.0,0 STARLINK-5911,1 55950U 23037AN  23149.61347125 -.00000003  00000-0  17463-5 0  9997,2 55950  69.9972 336.2502 0003340 274.4745  85.6069 15.69919121 11620,6737.265,91.724,361.381,356.88,0.0
55950.0,STARLINK-5911,PAYLOAD,2023-05-29 16:15:09,15.69920346,0.000327,69.9977,336.0709,274.9062,85.1761,2.2667e-06,6e-07,0.0,0 STARLINK-5911,1 55950U 23037AN  23149.67718751  .00000060  00000-0  22667-5 0  9994,2 55950  69.9977 336.0709 0003270 274.9062  85.1761 15.69920346 11974,6737.262,91.724,361.33,356.924,0.0
55950.0,STARLINK-5911,PAYLOAD,2023-05-29 20:50:23,15.69927639,0.0003215,69.9973,335.5324,278.13,81.9531,8.9907e-06,8.69e-06,0.0,0 STARLINK-5911,1 55950U 23037AN  23149.86833221  .00000869  00000-0  89907-5 0  9992,2 55950  69.9973 335.5324 0003215 278.1300  81.9531 15.69927639 11664,6737.241,91.724,361.272,356.94,0.0
55950.0,STARLINK-5911,PAYLOAD,2023-05-29 22:22:08,15.69929172,0.0003281,69.997,335.3533,267.8321,92.2499,9.5007e-06,9.3e-06,0.0,0 STARLINK-5911,1 55950U 23037AN  23149.93204650  .00000930  00000-0  95007-5 0  9995,2 55950  69.9970 335.3533 0003281 267.8321  92.2499 15.69929172 12014,6737.237,91.724,361.312,356.891,0.0
55950.0,STARLINK-5911,PAYLOAD,2023-05-30 06:00:54,15.69919157,0.0003238,69.9978,334.4601,273.5233,86.5592,1.5234e-05,1.619e-05,0.0,0 STARLINK-5911,1 55950U 23037AN  23150.25063594  .00001619  00000-0  15234-4 0  9990,2 55950  69.9978 334.4601 0003238 273.5233  86.5592 15.69919157 12063,6737.265,91.724,361.312,356.949,0.0
55950.0,STARLINK-5911,PAYLOAD,2023-05-30 15:11:25,15.69928503,0.0003586,69.9981,333.3845,268.5303,91.5482,3.0405e-06,1.53e-06,0.0,0 STARLINK-5911,1 55950U 23037AN  23150.63293060  .00000153  00000-0  30405-5 0  9995,2 55950  69.9981 333.3845 0003586 268.5303  91.5482 15.69928503 12129,6737.239,91.724,361.52,356.688,0.0
55950.0,STARLINK-5911,PAYLOAD,2023-05-30 21:18:25,15.69928934,0.0003589,69.9976,332.6671,267.3821,92.6964,4.8869e-07,-1.54e-06,0.0,0 STARLINK-5911,1 55950U 23037AN  23150.88779703 -.00000154  00000-0  48869-6 0  9991,2 55950  69.9976 332.6671 0003589 267.3821  92.6964 15.69928934 11828,6737.237,91.724,361.52,356.684,0.0
55950.0,STARLINK-5911,PAYLOAD,2023-05-31 11:04:12,15.699217,0.0003445,69.9979,331.0557,268.5358,91.5443,8.9679e-06,8.65e-06,0.0,0 STARLINK-5911,1 55950U 23037AN  23151.46125238  .00000865  00000-0  89679-5 0  9995,2 55950  69.9979 331.0557 0003445 268.5358  91.5443 15.69921700 12258,6737.258,91.724,361.444,356.802,0.0
55950.0,STARLINK-5911,PAYLOAD,2023-05-31 14:07:42,15.69911933,0.00039,69.9972,330.6964,271.489,88.5859,2.1628e-05,2.387e-05,0.0,0 STARLINK-5911,1 55950U 23037AN  23151.58868894  .00002387  00000-0  21628-4 0  9990,2 55950  69.9972 330.6964 0003900 271.4890  88.5859 15.69911933 11936,6737.286,91.725,361.778,356.523,0.0
55950.0,STARLINK-5911,PAYLOAD,2023-05-31 18:42:57,15.69932008,0.0003819,69.997,330.1592,267.3638,92.712,1.4253e-05,1.502e-05,0.0,0 STARLINK-5911,1 55950U 23037AN  23151.77982740  .00001502  00000-0  14253-4 0  9992,2 55950  69.9970 330.1592 0003819 267.3638  92.7120 15.69932008 12305,6737.229,91.724,361.666,356.521,0.0
55950.0,STARLINK-5911,PAYLOAD,2023-05-31 21:46:27,15.69926105,0.0003796,69.9964,329.7995,270.6794,89.3967,4.9348e-06,3.8e-06,0.0,0 STARLINK-5911,1 55950U 23037AN  23151.90726603  .00000380  00000-0  49348-5 0  9998,2 55950  69.9964 329.7995 0003796 270.6794  89.3967 15.69926105 11988,6737.245,91.724,361.668,356.553,0.0
55950.0,STARLINK-5911,PAYLOAD,2023-06-01 05:25:13,15.69918983,0.0003648,69.9973,328.9048,269.8607,90.2171,-8.1349e-07,-3.11e-06,0.0,0 STARLINK-5911,1 55950U 23037AN  23152.22585553 -.00000311  00000-0 -81349-6 0  9995,2 55950  69.9973 328.9048 0003648 269.8607  90.2171 15.69918983 12037,6737.266,91.724,361.589,356.673,0.0
55950.0,STARLINK-5911,PAYLOAD,2023-06-01 14:35:44,15.69926273,0.0004016,69.9973,327.8303,271.3049,88.7687,6.6104e-06,5.82e-06,0.0,0 STARLINK-5911,1 55950U 23037AN  23152.60814931  .00000582  00000-0  66104-5 0  9991,2 55950  69.9973 327.8303 0004016 271.3049  88.7687 15.69926273 12436,6737.245,91.724,361.816,356.404,0.0
55950.0,STARLINK-5911,PAYLOAD,2023-06-02 13:32:01,15.69920958,0.0003831,69.9986,325.1447,266.4041,93.6717,9.5663e-06,9.37e-06,0.0,0 STARLINK-5911,1 55950U 23037AN  23153.56390440  .00000937  00000-0  95663-5 0  9997,2 55950  69.9986 325.1447 0003831 266.4041  93.6717 15.69920958 12243,6737.26,91.724,361.706,356.544,0.0
55950.0,STARLINK-5911,PAYLOAD,2023-06-02 15:03:46,15.6992188,0.0003915,69.9984,324.9653,268.0117,92.063,1.0196e-05,1.013e-05,0.0,0 STARLINK-5911,1 55950U 23037AN  23153.62762061  .00001013  00000-0  10196-4 0  9999,2 55950  69.9984 324.9653 0003915 268.0117  92.0630 15.69921880 12592,6737.257,91.724,361.76,356.485,0.0
55950.0,STARLINK-5911,PAYLOAD,2023-06-02 21:10:46,15.69921956,0.0003495,69.9966,324.2455,267.0375,93.0421,3.6562e-06,2.27e-06,0.0,0 STARLINK-5911,1 55950U 23037AN  23153.88248827  .00000227  00000-0  36562-5 0  9998,2 55950  69.9966 324.2455 0003495 267.0375  93.0421 15.69921956 12293,6737.257,91.724,361.477,356.768,0.0
55950.0,STARLINK-5911,PAYLOAD,2023-06-03 14:00:03,15.69925598,0.0003863,69.9971,322.2765,271.6929,88.3824,6.8231e-06,6.07e-06,0.0,0 STARLINK-5911,1 55950U 23037AN  23154.58336995  .00000607  00000-0  68231-5 0  9990,2 55950  69.9971 322.2765 0003863 271.6929  88.3824 15.69925598 12409,6737.247,91.724,361.714,356.509,0.0
55950.0,STARLINK-5911,PAYLOAD,2023-06-03 18:35:18,15.69927586,0.0003713,69.9978,321.7402,272.0886,87.9885,7.0003e-06,6.29e-06,0.0,0 STARLINK-5911,1 55950U 23037AN  23154.77451900  .00000629  00000-0  70003-5 0  9999,2 55950  69.9978 321.7402 0003713 272.0886  87.9885 15.69927586 12770,6737.241,91.724,361.608,356.605,0.0
55950.0,STARLINK-5911,PAYLOAD,2023-06-03 20:07:03,15.69927803,0.0003668,69.9977,321.5607,272.0246,88.0529,1.4258e-05,1.502e-05,0.0,0 STARLINK-5911,1 55950U 23037AN  23154.83823476  .00001502  00000-0  14258-4 0  9997,2 55950  69.9977 321.5607 0003668 272.0246  88.0529 15.69927803 12446,6737.241,91.724,361.577,356.634,0.0
55950.0,STARLINK-5911,PAYLOAD,2023-06-04 14:28:05,15.69928529,0.0003873,69.9982,319.4121,277.3161,82.7594,5.4485e-06,4.42e-06,0.0,0 STARLINK-5911,1 55950U 23037AN  23155.60283818  .00000442  00000-0  54485-5 0  9992,2 55950  69.9982 319.4121 0003873 277.3161  82.7594 15.69928529 12563,6737.238,91.724,361.713,356.494,0.0
55950.0,STARLINK-5911,PAYLOAD,2023-06-04 19:03:19,15.69935672,0.0003679,69.998,318.8732,274.2277,85.8498,1.5118e-05,1.606e-05,0.0,0 STARLINK-5911,1 55950U 23037AN  23155.79398141  .00001606  00000-0  15118-4 0  9990,2 55950  69.9980 318.8732 0003679 274.2277  85.8498 15.69935672 12935,6737.218,91.724,361.562,356.604,0.0
55950.0,STARLINK-5911,PAYLOAD,2023-06-04 20:35:05,15.69934069,0.0003711,69.9977,318.6932,273.7132,86.3639,1.315e-05,1.369e-05,0.0,0 STARLINK-5911,1 55950U 23037AN  23155.85769920  .00001369  00000-0  13150-4 0  9994,2 55950  69.9977 318.6932 0003711 273.7132  86.3639 15.69934069 12608,6737.223,91.724,361.588,356.587,0.0
55950.0,STARLINK-5911,PAYLOAD,2023-06-05 10:20:52,15.69916586,0.0003332,69.9985,317.0845,277.8424,82.2393,-2.9331e-07,-2.48e-06,0.0,0 STARLINK-5911,1 55950U 23037AN  23156.43116591 -.00000248  00000-0 -29331-6 0  9996,2 55950  69.9985 317.0845 0003332 277.8424  82.2393 15.69916586 13035,6737.273,91.725,361.383,356.893,0.0
55950.0,STARLINK-5911,PAYLOAD,2023-06-05 13:24:22,15.69915952,0.0003757,69.9982,316.7243,271.3165,88.7601,5.1267e-06,4.03e-06,0.0,0 STARLINK-5911,1 55950U 23037AN  23156.55859839  .00000403  00000-0  51267-5 0  9991,2 55950  69.9982 316.7243 0003757 271.3165  88.7601 15.69915952 12715,6737.274,91.725,361.671,356.608,0.0
55950.0,STARLINK-5911,PAYLOAD,2023-06-05 19:31:22,15.6993169,0.0003317,69.9979,316.0084,275.7564,84.3254,1.3506e-05,1.412e-05,0.0,0 STARLINK-5911,1 55950U 23037AN  23156.81345467  .00001412  00000-0  13506-4 0  9991,2 55950  69.9979 316.0084 0003317 275.7564  84.3254 15.69931690 12757,6737.229,91.724,361.329,356.86,0.0
55950.0,STARLINK-5911,PAYLOAD,2023-06-06 13:52:24,15.69923436,0.0003576,69.9992,313.8582,261.814,98.265,2.3936e-06,7.5e-07,0.0,0 STARLINK-5911,1 55950U 23037AN  23157.57805946  .00000075  00000-0  23936-5 0  9991,2 55950  69.9992 313.8582 0003576 261.8140  98.2650 15.69923436 13218,6737.253,91.724,361.527,356.709,0.0
55950.0,STARLINK-5911,PAYLOAD,2023-06-06 19:59:23,15.69937836,0.000429,69.9967,313.1378,277.4062,82.6646,1.3974e-05,1.468e-05,0.0,0 STARLINK-5911,1 55950U 23037AN  23157.83291542  .00001468  00000-0  13974-4 0  9998,2 55950  69.9967 313.1378 0004290 277.4062  82.6646 15.69937836 12913,6737.212,91.723,361.967,356.187,0.0
55950.0,STARLINK-5911,PAYLOAD,2023-06-07 03:38:10,15.69915493,0.0003709,69.9977,312.243,274.4949,85.5823,2.7553e-07,-1.8e-06,0.0,0 STARLINK-5911,1 55950U 23037AN  23158.15151510 -.00000180  00000-0  27553-6 0  9995,2 55950  69.9977 312.2430 0003709 274.4949  85.5823 15.69915493 13306,6737.276,91.725,361.64,356.642,0.0
55950.0,STARLINK-5911,PAYLOAD,2023-06-07 18:55:41,15.69935197,0.00037,69.9977,310.4514,273.1776,86.8997,1.2563e-05,1.299e-05,0.0,0 STARLINK-5911,1 55950U 23037AN  23158.78866936  .00001299  00000-0  12563-4 0  9993,2 55950  69.9977 310.4514 0003700 273.1776  86.8997 15.69935197 13066,6737.219,91.724,361.577,356.592,0.0
55950.0,STARLINK-5911,PAYLOAD,2023-06-07 21:59:11,15.6993011,0.0004346,69.9971,310.0941,273.4247,86.6451,-2.057e-06,-4.61e-06,0.0,0 STARLINK-5911,1 55950U 23037AN  23158.91610573 -.00000461  00000-0 -20570-5 0  9992,2 55950  69.9971 310.0941 0004346 273.4247  86.6451 15.69930110 13426,6737.234,91.724,362.027,356.171,0.0
